[{"OBJECT_NAME":"SES-2","OBJECT_ID":"2011-049A","EPOCH":"2026-03-02T13:42:03.391776","MEAN_MOTION":1.00272732,"ECCENTRICITY":0.0002964,"INCLINATION":0.0316,"RA_OF_ASC_NODE":76.6744,"ARG_OF_PERICENTER":261.0972,"MEAN_ANOMALY":301.0674,"EPHEMERIS_TYPE":0,"CLASSIFICATION_TYPE":"U","NORAD_CAT_ID":37809,"ELEMENT_SET_NO":999,"REV_AT_EPOCH":5289,"BSTAR":0,"MEAN_MOTION_DOT":-2.13e-6,"MEAN_MOTION_DDOT":0},{"OBJECT_NAME":"QUETZSAT 1","OBJECT_ID":"2011-054A","EPOCH":"2026-03-02T13:44:48.128928","MEAN_MOTION":1.00271593,"ECCENTRICITY":0.0002708,"INCLINATION":0.057,"RA_OF_ASC_NODE":287.6987,"ARG_OF_PERICENTER":66.1546,"MEAN_ANOMALY":295.683,"EPHEMERIS_TYPE":0,"CLASSIFICATION_TYPE":"U","NORAD_CAT_ID":37826,"ELEMENT_SET_NO":999,"REV_AT_EPOCH":4880,"BSTAR":0,"MEAN_MOTION_DOT":-2.59e-6,"MEAN_MOTION_DDOT":0},{"OBJECT_NAME":"SES-4","OBJECT_ID":"2012-007A","EPOCH":"2026-03-02T08:52:35.278464","MEAN_MOTION":1.00270118,"ECCENTRICITY":0.00022063,"INCLINATION":0.033,"RA_OF_ASC_NODE":62.3198,"ARG_OF_PERICENTER":290.0932,"MEAN_ANOMALY":278.8803,"EPHEMERIS_TYPE":0,"CLASSIFICATION_TYPE":"U","NORAD_CAT_ID":38087,"ELEMENT_SET_NO":999,"REV_AT_EPOCH":5115,"BSTAR":0,"MEAN_MOTION_DOT":-1.86e-6,"MEAN_MOTION_DDOT":0},{"OBJECT_NAME":"SES-5","OBJECT_ID":"2012-036A","EPOCH":"2026-03-02T09:26:38.658336","MEAN_MOTION":1.00272505,"ECCENTRICITY":0.00019182,"INCLINATION":0.0626,"RA_OF_ASC_NODE":307.8056,"ARG_OF_PERICENTER":23.5348,"MEAN_ANOMALY":335.4588,"EPHEMERIS_TYPE":0,"CLASSIFICATION_TYPE":"U","NORAD_CAT_ID":38652,"ELEMENT_SET_NO":999,"REV_AT_EPOCH":4338,"BSTAR":0,"MEAN_MOTION_DOT":1.6e-7,"MEAN_MOTION_DDOT":0},{"OBJECT_NAME":"ASTRA 2F","OBJECT_ID":"2012-051A","EPOCH":"2026-03-02T17:40:21.040032","MEAN_MOTION":1.00273286,"ECCENTRICITY":0.0002715,"INCLINATION":0.0768,"RA_OF_ASC_NODE":259.2765,"ARG_OF_PERICENTER":14.8992,"MEAN_ANOMALY":179.5896,"EPHEMERIS_TYPE":0,"CLASSIFICATION_TYPE":"U","NORAD_CAT_ID":38778,"ELEMENT_SET_NO":999,"REV_AT_EPOCH":4006,"BSTAR":0,"MEAN_MOTION_DOT":1.33e-6,"MEAN_MOTION_DDOT":0},{"OBJECT_NAME":"SES-6","OBJECT_ID":"2013-026A","EPOCH":"2026-03-02T17:20:30.441120","MEAN_MOTION":1.0027239,"ECCENTRICITY":0.0001855,"INCLINATION":0.0697,"RA_OF_ASC_NODE":286.9218,"ARG_OF_PERICENTER":55.2279,"MEAN_ANOMALY":37.9463,"EPHEMERIS_TYPE":0,"CLASSIFICATION_TYPE":"U","NORAD_CAT_ID":39172,"ELEMENT_SET_NO":999,"REV_AT_EPOCH":4665,"BSTAR":0,"MEAN_MOTION_DOT":-2.78e-6,"MEAN_MOTION_DDOT":0},{"OBJECT_NAME":"O3B FM5","OBJECT_ID":"2013-031A","EPOCH":"2026-03-02T11:57:48.790368","MEAN_MOTION":5.00116428,"ECCENTRICITY":0.0003345,"INCLINATION":0.0973,"RA_OF_ASC_NODE":14.6047,"ARG_OF_PERICENTER":317.932,"MEAN_ANOMALY":27.4383,"EPHEMERIS_TYPE":0,"CLASSIFICATION_TYPE":"U","NORAD_CAT_ID":39188,"ELEMENT_SET_NO":999,"REV_AT_EPOCH":23170,"BSTAR":0,"MEAN_MOTION_DOT":-2.9e-7,"MEAN_MOTION_DDOT":0},{"OBJECT_NAME":"O3B FM4","OBJECT_ID":"2013-031B","EPOCH":"2026-03-02T14:49:23.119680","MEAN_MOTION":5.0011521,"ECCENTRICITY":0.0005035,"INCLINATION":0.0556,"RA_OF_ASC_NODE":345.1632,"ARG_OF_PERICENTER":4.6281,"MEAN_ANOMALY":10.1911,"EPHEMERIS_TYPE":0,"CLASSIFICATION_TYPE":"U","NORAD_CAT_ID":39189,"ELEMENT_SET_NO":999,"REV_AT_EPOCH":23171,"BSTAR":0,"MEAN_MOTION_DOT":-2.9e-7,"MEAN_MOTION_DDOT":0},{"OBJECT_NAME":"O3B FM2","OBJECT_ID":"2013-031C","EPOCH":"2026-03-02T16:23:58.554240","MEAN_MOTION":5.00115954,"ECCENTRICITY":0.0002843,"INCLINATION":0.0567,"RA_OF_ASC_NODE":339.0902,"ARG_OF_PERICENTER":359.6148,"MEAN_ANOMALY":21.2758,"EPHEMERIS_TYPE":0,"CLASSIFICATION_TYPE":"U","NORAD_CAT_ID":39190,"ELEMENT_SET_NO":999,"REV_AT_EPOCH":23178,"BSTAR":0,"MEAN_MOTION_DOT":-2.9e-7,"MEAN_MOTION_DDOT":0},{"OBJECT_NAME":"O3B PFM","OBJECT_ID":"2013-031D","EPOCH":"2026-03-02T11:56:27.225312","MEAN_MOTION":5.00116022,"ECCENTRICITY":0.0005128,"INCLINATION":0.0664,"RA_OF_ASC_NODE":7.8005,"ARG_OF_PERICENTER":348.3585,"MEAN_ANOMALY":3.8297,"EPHEMERIS_TYPE":0,"CLASSIFICATION_TYPE":"U","NORAD_CAT_ID":39191,"ELEMENT_SET_NO":999,"REV_AT_EPOCH":23133,"BSTAR":0,"MEAN_MOTION_DOT":-2.9e-7,"MEAN_MOTION_DDOT":0},{"OBJECT_NAME":"ASTRA 2E","OBJECT_ID":"2013-056A","EPOCH":"2026-03-02T17:40:28.526592","MEAN_MOTION":1.00271256,"ECCENTRICITY":0.00022,"INCLINATION":0.0672,"RA_OF_ASC_NODE":27.343,"ARG_OF_PERICENTER":307.1895,"MEAN_ANOMALY":119.5608,"EPHEMERIS_TYPE":0,"CLASSIFICATION_TYPE":"U","NORAD_CAT_ID":39285,"ELEMENT_SET_NO":999,"REV_AT_EPOCH":4535,"BSTAR":0,"MEAN_MOTION_DOT":1.34e-6,"MEAN_MOTION_DDOT":0},{"OBJECT_NAME":"SES-8","OBJECT_ID":"2013-071A","EPOCH":"2026-03-02T14:42:59.332608","MEAN_MOTION":1.00267709,"ECCENTRICITY":0.0001676,"INCLINATION":0.0622,"RA_OF_ASC_NODE":272.7609,"ARG_OF_PERICENTER":99.9747,"MEAN_ANOMALY":103.3736,"EPHEMERIS_TYPE":0,"CLASSIFICATION_TYPE":"U","NORAD_CAT_ID":39460,"ELEMENT_SET_NO":999,"REV_AT_EPOCH":4337,"BSTAR":0,"MEAN_MOTION_DOT":-2.85e-6,"MEAN_MOTION_DDOT":0},{"OBJECT_NAME":"ASTRA 5B","OBJECT_ID":"2014-011B","EPOCH":"2026-03-02T17:38:58.671456","MEAN_MOTION":1.00269973,"ECCENTRICITY":0.0004235,"INCLINATION":0.0946,"RA_OF_ASC_NODE":297.1233,"ARG_OF_PERICENTER":25.8038,"MEAN_ANOMALY":125.8034,"EPHEMERIS_TYPE":0,"CLASSIFICATION_TYPE":"U","NORAD_CAT_ID":39617,"ELEMENT_SET_NO":999,"REV_AT_EPOCH":4360,"BSTAR":0,"MEAN_MOTION_DOT":1.2e-6,"MEAN_MOTION_DDOT":0},{"OBJECT_NAME":"O3B FM3","OBJECT_ID":"2014-038A","EPOCH":"2026-03-02T13:32:23.396352","MEAN_MOTION":5.00115569,"ECCENTRICITY":4.24e-5,"INCLINATION":0.053,"RA_OF_ASC_NODE":353.4641,"ARG_OF_PERICENTER":42.5092,"MEAN_ANOMALY":324.0222,"EPHEMERIS_TYPE":0,"CLASSIFICATION_TYPE":"U","NORAD_CAT_ID":40079,"ELEMENT_SET_NO":999,"REV_AT_EPOCH":20771,"BSTAR":0,"MEAN_MOTION_DOT":-2.9e-7,"MEAN_MOTION_DDOT":0},{"OBJECT_NAME":"O3B FM7","OBJECT_ID":"2014-038B","EPOCH":"2026-03-02T07:26:54.646080","MEAN_MOTION":5.00115622,"ECCENTRICITY":0.0004489,"INCLINATION":0.0588,"RA_OF_ASC_NODE":348.9474,"ARG_OF_PERICENTER":339.4059,"MEAN_ANOMALY":31.6123,"EPHEMERIS_TYPE":0,"CLASSIFICATION_TYPE":"U","NORAD_CAT_ID":40080,"ELEMENT_SET_NO":999,"REV_AT_EPOCH":21253,"BSTAR":0,"MEAN_MOTION_DOT":-2.9e-7,"MEAN_MOTION_DDOT":0},{"OBJECT_NAME":"O3B FM6","OBJECT_ID":"2014-038C","EPOCH":"2026-02-28T08:07:22.842912","MEAN_MOTION":5.00115665,"ECCENTRICITY":0.00026722,"INCLINATION":0.055,"RA_OF_ASC_NODE":351.2998,"ARG_OF_PERICENTER":345.9055,"MEAN_ANOMALY":22.7755,"EPHEMERIS_TYPE":0,"CLASSIFICATION_TYPE":"U","NORAD_CAT_ID":40081,"ELEMENT_SET_NO":999,"REV_AT_EPOCH":21238,"BSTAR":0,"MEAN_MOTION_DOT":-2.8e-7,"MEAN_MOTION_DDOT":0},{"OBJECT_NAME":"O3B FM8","OBJECT_ID":"2014-038D","EPOCH":"2026-03-02T14:10:25.624704","MEAN_MOTION":5.00115942,"ECCENTRICITY":0.0002656,"INCLINATION":0.0559,"RA_OF_ASC_NODE":350.6699,"ARG_OF_PERICENTER":352.9924,"MEAN_ANOMALY":16.3217,"EPHEMERIS_TYPE":0,"CLASSIFICATION_TYPE":"U","NORAD_CAT_ID":40082,"ELEMENT_SET_NO":999,"REV_AT_EPOCH":21261,"BSTAR":0,"MEAN_MOTION_DOT":-2.9e-7,"MEAN_MOTION_DDOT":0}]
